IRIDIUM 159             
1 43578U 18061K   25155.54924093  .00000099  00000+0  28427-4 0  9991
2 43578  86.3997 214.4765 0002094  94.7731 265.3704 14.34217535359252
IRIDIUM 180             
1 43922U 19002A   25155.47896916  .00000010  00000+0 -35105-5 0  9990
2 43922  86.3980 151.4888 0002202  91.5560 268.5888 14.34217705334899
IRIDIUM 168             
1 43924U 19002C   25155.47262592  .00000076  00000+0  20126-4 0  9996
2 43924  86.3977 151.5581 0002346  89.0033 271.1431 14.34218105334837
IRIDIUM 173             
1 43925U 19002D   25155.45994145 -.00000027  00000+0 -16543-4 0  9997
2 43925  86.3979 151.4679 0002294  93.2923 266.8535 14.34217428334815
IRIDIUM 169             
1 43926U 19002E   25155.56440902  .00000351  00000+0  10815-3 0  9990
2 43926  86.4254 183.0020 0003737 101.1146 259.0473 14.38607417335937
IRIDIUM 172             
1 43927U 19002F   25155.52336482  .00000045  00000+0  89475-5 0  9994
2 43927  86.3975 151.4481 0002090  94.2950 265.8484 14.34217504334838
IRIDIUM 175             
1 43928U 19002G   25155.32148077  .00001084  00000+0  16796-3 0  9992
2 43928  86.1494 104.7964 0003402  77.3108 282.8489 14.72241340343645
